IRIDIUM 150             
1 43257U 18030J   25005.83767966  .00000347  00000+0  11692-3 0  9992
2 43257  86.4000 150.9208 0001959 102.1001 258.0414 14.34212054354579
IRIDIUM 143             
1 43258U 18030K   25005.53957417  .00000751  00000+0  26101-3 0  9992
2 43258  86.4000 151.1170 0002069 109.3858 250.7562 14.34211165354466
IRIDIUM 161             
1 43478U 18047C   25006.11593637  .00000969  00000+0  28209-3 0  9991
2 43478  86.4504 308.7256 0002260  84.6691 275.4767 14.43291281349111
IRIDIUM 152             
1 43479U 18047D   25006.07044565  .00000302  00000+0  10063-3 0  9998
2 43479  86.3976 308.6042 0002016  83.3134 276.8291 14.34215302346948
IRIDIUM 147             
1 43480U 18047E   25006.07678545  .00000088  00000+0  24205-4 0  9996
2 43480  86.3981 308.5971 0002344  76.2447 283.9010 14.34210851346939
IRIDIUM 110             
1 43481U 18047F   25005.80405240  .00000835  00000+0  29100-3 0  9995
2 43481  86.3984 308.7899 0001910  70.9147 289.2255 14.34213694346882
IRIDIUM 162             
1 43482U 18047G   25005.83232350  .00001132  00000+0  33059-3 0  9998
2 43482  86.4500 308.7413 0002002  82.9855 277.1574 14.43286751349069
IRIDIUM 160             
1 43569U 18061A   25005.81964548  .00000749  00000+0  26029-3 0  9991
2 43569  86.3968 277.1427 0002208  77.6894 282.4549 14.34224216337783
